#cP2018  6 25  0  0  0.00000000      96 ORBIT IGS14 HLM  IGS
## 2007  86400.00000000   900.00000000 58294 0.0000000000000
+   32   G01G02G03G04G05G06G07G08G09G10G11G12G13G14G15G16G17
+        G18G19G20G21G22G23G24G25G26G27G28G29G30G31G32  0  0
+          0  0  0  0  0  0  0  0  0  0  0  0  0  0  0  0  0
+          0  0  0  0  0  0  0  0  0  0  0  0  0  0  0  0  0
+          0  0  0  0  0  0  0  0  0  0  0  0  0  0  0  0  0
++         2  2  2  0  2  2  2  2  2  2  2  2  2  2  2  2  2
++         2  2  2  2  2  2  2  2  2  2  2  2  2  2  2  0  0
++         0  0  0  0  0  0  0  0  0  0  0  0  0  0  0  0  0
++         0  0  0  0  0  0  0  0  0  0  0  0  0  0  0  0  0
++         0  0  0  0  0  0  0  0  0  0  0  0  0  0  0  0  0
%c G  cc GPS ccc cccc cccc cccc cccc ccccc ccccc ccccc ccccc
%c cc cc ccc ccc cccc cccc cccc cccc ccccc ccccc ccccc ccccc
%f  1.2500000  1.025000000  0.00000000000  0.000000000000000
%f  0.0000000  0.000000000  0.00000000000  0.000000000000000
%i    0    0    0    0      0      0      0      0         0
%i    0    0    0    0      0      0      0      0         0
/* RAPID ORBIT COMBINATION FROM WEIGHTED AVERAGE OF:        
/* cod emr esa gfz jpl ngs sio usn whu                      
/* REFERENCED TO IGS TIME (IGST) AND TO WEIGHTED MEAN POLE: 
/* PCV:IGS14_2000 OL/AL:FES2004  NONE     Y  ORB:CMB CLK:CMB
*  2018  6 25 18 45  0.00000000
PG01  15566.845296    308.839973  21405.249393    -59.681636  5  4  6  84       
PG02 -14668.151168 -20654.260589  -7811.329612     75.595154  5  7  7  72       
PG03  20679.219581  -9525.331636  13604.733049     95.330808  6  6  7 108       
PG04  -3305.721063  20422.577961 -16744.662344 999999.999999
PG05 -11768.203607 -10160.279030 -21635.358297     -5.578230  6  6  5  91       
PG06  -5552.626022 -25502.489687   4877.602165    392.972080  7  8  8  78       
PG07   8588.729094 -16137.783917 -18876.076239    169.350106  5  6  4  95       
PG08  26102.470391   5237.734874  -1011.144575   -106.029494  2  5  4  80       
PG09  17716.583279  -9491.338148 -17395.956456    514.461957  6  7  7 102       
PG10  -7994.695632  22271.325502  11943.993047    188.682055  5  6  4 108       
PG11  20289.572870   2771.111918  16271.389967   -732.588545  4  2  4  87       
PG12 -19950.012209   4801.927388  16563.693333    325.072458  3  5  5 103       
PG13 -21911.415525 -12710.440984  -8099.028901    -93.134626  5  9  6  99       
PG14  10421.752021  16260.888897  18609.548162    -97.500985  5  8  6  81       
PG15 -26669.922748  -2194.082231    647.217217   -351.977456  6  7  7 100       
PG16   9727.805789  11064.589520 -22246.490429     20.125629  6  8  4  62       
PG17    -48.701024 -15210.405630  22170.547275    -84.621409  4  7  6  94       
PG18  17245.507979   9582.067185  17402.773365     26.015771  5  4  6  41       
PG19  -9110.772242 -15838.131037  18918.053033   -425.547648  5  7  7  98       
PG20 -13668.503493  22626.671825   1926.004453    511.244407  6 10  7 115       
PG21  -4570.016804  19853.212638 -16258.829041   -376.408005  3  7  6  62       
PG22  18927.374180  -1527.980570  18809.086422   -437.664135  6  4  5 108       
PG23  25455.608042  -1444.416068  -7890.987020   -215.397159  1  4  6  91       
PG24 -17154.058350  -3959.558406  19848.294871    -51.702958  6  1  4  71       
PG25 -19427.938111  17082.525813   5257.218164   -606.473242  7  7  6  88       
PG26   1477.249631  18877.578021 -18582.078352   -103.989582  6  6  5  55       
PG27  20341.935292  12167.894913 -12329.041764    364.316354  6  6  4  62       
PG28  11761.302276 -21566.921117  10778.414036    726.489221  1  9  7 116       
PG29 -19846.757885   6332.408925 -16495.494395    426.047364  2  7  6  81       
PG30   2071.973430 -23516.385074 -11992.616105     58.218656  4  5  6  86       
PG31   6012.678659  25474.325641   2909.952537    112.096085  2  7  4  78       
PG32    278.710708  15519.667676  21600.537419   -487.529558  3  5  4  58       
*  2018  6 25 19  0  0.00000000
PG01  16392.766764   2594.601573  20652.216123    -59.684852  5  3  6  91       
PG02 -14763.293568 -21492.344384  -5119.211401     75.585557  5  8  7  88       
PG03  19776.863242  -8091.546743  15713.868687     95.336634  6  6  7  97       
PG04  -4563.407498  21669.956737 -14703.284063 999999.999999
PG05 -10256.054543 -12082.726124 -21395.523060     -5.577253  7  6  5  96       
PG06  -5090.335117 -24919.253796   7636.546884    392.969048  7  8  8  79       
PG07   9510.875693 -14040.042398 -20099.425449    169.344660  6  7  3  96       
PG08  25792.912613   5415.246831  -3856.933296   -106.029578  3  5  4 101       
PG09  19556.373523  -9052.867818 -15559.922853    514.461702  6  7  7  94       
PG10  -8937.757232  23084.128479   9450.196412    188.682406  5  6  4 110       
PG11  21417.955295   4291.807872  14439.614487   -732.587277  4  2  4  94       
PG12 -18674.769316   3214.028667  18336.578305    325.070440  4  4  6  92       
PG13 -20833.576413 -12628.273980 -10690.818768    -93.134069  5  9  6 109       
PG14   8309.267939  15877.959166  19960.251314    -97.500801  5  8  6  82       
PG15 -26587.827966  -2506.679462  -2117.451225   -351.976723  6  8  7  95       
PG16   7992.919047  12850.964855 -21937.071922     20.124387  6  8  4  67       
PG17   2360.407893 -14724.017086  22365.284600    -84.617556  3  7  5  59       
PG18  17869.221677  11454.651692  15612.400960     26.020020  6  5  6  53       
PG19  -6859.343577 -15371.135276  20204.873543   -425.544825  5  7  7  81       
PG20 -14006.657781  22499.045558   -867.801119    511.245198  6 10  7 114       
PG21  -5608.391875  18016.611559 -17907.278743   -376.402785  4  7  7  53       
PG22  17784.576767    339.292123  19964.511551   -437.675063  6  5  4 100       
PG23  26190.360933  -1076.802359  -5229.154845   -215.396821  1  5  5  90       
PG24 -17935.751676  -6043.187918  18627.149601    -51.704138  5  1  5  74       
PG25 -19112.682509  16328.304714   8015.901299   -606.478594  6  7  5 100       
PG26    107.412714  20394.217913 -16954.378778   -103.978489  5  6  5  89       
PG27  18820.160457  12089.052722 -14603.989092    364.314813  6  5  4  87       
PG28  12560.477387 -22186.090505   8151.335387    726.492099  3  9  7 118       
PG29 -21539.556928   5829.087715 -14423.339785    426.041561  3  6  6  89       
PG30   2786.896498 -22161.341689 -14233.384636     58.214540  5  5  6  95       
PG31   5587.213051  25098.621230   5737.831800    112.093780  2  7  4  90       
PG32  -2168.394977  15173.952530  21731.173139   -487.523178  3  5  4  77       
*  2018  6 25 19 15  0.00000000
PG01  17295.470730   4732.911164  19541.175247    -59.688013  5  4  6  84       
PG02 -14759.394552 -22047.058662  -2339.045009     75.575534  5  8  7  99       
PG03  18820.843174  -6430.442658  17551.478921     95.342463  7  6  7 104       
PG04  -5606.706627  22789.311420 -12409.513327 999999.999999
PG05  -8867.721054 -14041.149897 -20790.260358     -5.576756  7  6  5  96       
PG06  -4469.003534 -24084.805279  10263.993707    392.966070  7  8  7  75       
PG07  10584.681035 -11884.675585 -20966.496131    169.338748  6  6  2 115       
PG08  25176.395656   5584.392729  -6636.896616   -106.030424  4  5  5  76       
PG09  21194.384007  -8726.287151 -13456.726429    514.461492  6  7  7  89       
PG10  -9669.865677  23705.688100   6792.589180    188.682765  5  6  4  93       
PG11  22440.132714   5612.490584  12348.510848   -732.586609  4  3  5  98       
PG12 -17373.736401   1414.045797  19787.022220    325.068000  4  5  6  83       
PG13 -19477.209430 -12543.905841 -13099.537624    -93.133956  5  9  6 104       
PG14   6049.147444  15585.164252  20977.522709    -97.501249  6  7  6  85       
PG15 -26214.573758  -2817.903650  -4846.615901   -351.976494  7  8  7  89       
PG16   6394.588009  14692.532522 -21254.028344     20.123115  7  8  5  95       
PG17   4795.360516 -14374.635861  22188.762875    -84.614219  3  7  4  67       
PG18  18485.216384  13092.940290  13546.826444     26.024536  7  6  6  50       
PG19  -4460.802179 -15003.069573  21133.534759   -425.542398  5  7  6  93       
PG20 -14196.261245  22113.271451  -3646.609192    511.245821  6  9  7 107       
PG21  -6816.352063  16074.862563 -19227.789721   -376.398705  5  7  7  80       
PG22  16672.891805   2350.478563  20783.237668   -437.686777  6  5  4 111       
PG23  26639.049234   -773.365628  -2478.979291   -215.396248     6  5  96       
PG24 -18747.292885  -7943.955006  17085.281816    -51.704109  5  3  5  95       
PG25 -18660.400580  15306.886074  10633.849917   -606.483960  6  8  5 101       
PG26  -1070.874778  21813.141614 -15033.646700   -103.967371  5  6  6  95       
PG27  17054.420938  12073.548641 -16631.901932    364.313272  7  4  4 101       
PG28  13133.114233 -22617.300994   5387.222126    726.494163  4  9  7 116       
PG29 -23011.722007   5458.529389 -12103.240251    426.035278  3  5  7  87       
PG30   3655.704491 -20620.637091 -16227.134515     58.210364  5  5  5 102       
PG31   5020.001923  24452.983109   8464.535451    112.091153  3  6  4  87       
PG32  -4624.693238  14955.343816  21489.274472   -487.516808  4  6  4  88       
EOF
